#dV2023  1 25 10  0  0.00000000    1682       CTS   FIT  GFZ
## 2246 295200.00000000    30.00000000 59969 0.4166666666667
+    1   L64  0  0  0  0  0  0  0  0  0  0  0  0  0  0  0  0
+          0  0  0  0  0  0  0  0  0  0  0  0  0  0  0  0  0
+          0  0  0  0  0  0  0  0  0  0  0  0  0  0  0  0  0
+          0  0  0  0  0  0  0  0  0  0  0  0  0  0  0  0  0
+          0  0  0  0  0  0  0  0  0  0  0  0  0  0  0  0  0
++         0  0  0  0  0  0  0  0  0  0  0  0  0  0  0  0  0
++         0  0  0  0  0  0  0  0  0  0  0  0  0  0  0  0  0
++         0  0  0  0  0  0  0  0  0  0  0  0  0  0  0  0  0
++         0  0  0  0  0  0  0  0  0  0  0  0  0  0  0  0  0
++         0  0  0  0  0  0  0  0  0  0  0  0  0  0  0  0  0
%c L  cc GPS ccc cccc cccc cccc cccc ccccc ccccc ccccc ccccc
%c cc cc ccc ccc cccc cccc cccc cccc ccccc ccccc ccccc ccccc
%f  0.0000000  0.000000000  0.00000000000  0.000000000000000
%f  0.0000000  0.000000000  0.00000000000  0.000000000000000
%i    0    0    0    0      0      0      0      0         0
%i    0    0    0    0      0      0      0      0         0
/* CCCCCCCCCCCCCCCCCCCCCCCCCCCCCCCCCCCCCCCCCCCCCCCCCCCCCCCCCCCCCCCCCCCCCCCCCCCCC
/* C                             GFZ RSO-ORBIT                                 C
/* C DOI: https://doi.org/10.5880/GFZ_ORBIT/RSO/L64_G_v02                      C
/* C                                                                           C
/* C DORIS        RMS: not applicable                                          C
/* C GNSS-E Code  RMS: not applicable                                          C
/* C GNSS-E Phase RMS: not applicable                                          C
/* C GNSS-G Code  RMS:  53.238 [cm]   Obs.acc.:     13061 Obs.eli.:      1190  C
/* C GNSS-G Phase RMS:   4.774 [mm]   Obs.acc.:     13061 Obs.eli.:      1190  C
/* C SLR          RMS:   1.765 [cm]   Obs.acc.:        56 Obs.eli.:         0  C
/* C                                                                           C
/* CCCCCCCCCCCCCCCCCCCCCCCCCCCCCCCCCCCCCCCCCCCCCCCCCCCCCCCCCCCCCCCCCCCCCCCCCCCCC
*  2023  1 25 16 48  0.00000000
PL64   -219.040160    153.589440   6860.540079  18600.233428
VL64 -75202.586962  11017.496768  -2723.655748 999999.999999
*  2023  1 25 16 48 30.00000000
PL64   -444.413537    187.044770   6848.579102  18600.692077
VL64 -75032.392548  11283.891718  -5249.643949 999999.999999
*  2023  1 25 16 49  0.00000000
PL64   -669.151009    221.279470   6829.047705  18601.150314
VL64 -74778.694418  11536.967441  -7770.142580 999999.999999
*  2023  1 25 16 49 30.00000000
PL64   -893.002512    256.252609   6801.966498  18601.607156
VL64 -74441.807785  11776.077699 -10282.390299 999999.999999
*  2023  1 25 16 50  0.00000000
PL64  -1115.719071    291.921341   6767.364367  18602.063185
VL64 -74022.139697  12000.592735 -12783.633776 999999.999999
*  2023  1 25 16 50 30.00000000
PL64  -1337.053063    328.240957   6725.278443  18602.520410
VL64 -73520.187277  12209.899916 -15271.130117 999999.999999
*  2023  1 25 16 51  0.00000000
PL64  -1556.758494    365.164937   6675.754066  18602.978877
VL64 -72936.537729  12403.404735 -17742.147799 999999.999999
*  2023  1 25 16 51 30.00000000
PL64  -1774.591268    402.645007   6618.844752  18603.438003
VL64 -72271.869731  12580.532497 -20193.969631 999999.999999
*  2023  1 25 16 52  0.00000000
PL64  -1990.309461    440.631201   6554.612143  18603.897369
VL64 -71526.952559  12740.729776 -22623.897373 999999.999999
*  2023  1 25 16 52 30.00000000
PL64  -2203.673589    479.071923   6483.125940  18604.357039
VL64 -70702.644016  12883.465245 -25029.254521 999999.999999
*  2023  1 25 16 53  0.00000000
PL64  -2414.446876    517.914021   6404.463840  18604.816764
VL64 -69799.889423  13008.230309 -27407.388243 999999.999999
*  2023  1 25 16 53 30.00000000
PL64  -2622.395509    557.102849   6318.711462  18605.276379
VL64 -68819.720941  13114.539949 -29755.671268 999999.999999
*  2023  1 25 16 54  0.00000000
PL64  -2827.288904    596.582344   6225.962264  18605.736070
VL64 -67763.257731  13201.933922 -32071.503956 999999.999999
*  2023  1 25 16 54 30.00000000
PL64  -3028.899964    636.295101   6126.317458  18606.195729
VL64 -66631.706022  13269.977756 -34352.317918 999999.999999
*  2023  1 25 16 55  0.00000000
PL64  -3227.005341    676.182452   6019.885910  18606.655335
VL64 -65426.357827  13318.263710 -36595.579700 999999.999999
*  2023  1 25 16 55 30.00000000
PL64  -3421.385688    716.184545   5906.784028  18607.115019
VL64 -64148.589793  13346.411456 -38798.794046 999999.999999
*  2023  1 25 16 56  0.00000000
PL64  -3611.825916    756.240428   5787.135648  18607.574686
VL64 -62799.861101  13354.067955 -40959.507439 999999.999999
*  2023  1 25 16 56 30.00000000
PL64  -3798.115431    796.288135   5661.071896  18608.034323
VL64 -61381.711208  13340.908481 -43075.309875 999999.999999
*  2023  1 25 16 57  0.00000000
PL64  -3980.048379    836.264768   5528.731065  18608.494116
VL64 -59895.759432  13306.639144 -45143.837431 999999.999999
*  2023  1 25 16 57 30.00000000
PL64  -4157.423880    876.106597   5390.258462  18608.953833
VL64 -58343.702335  13250.997828 -47162.776202 999999.999999
*  2023  1 25 16 58  0.00000000
PL64  -4330.046256    915.749151   5245.806262  18609.413614
VL64 -56727.311509  13173.753609 -49129.862617 999999.999999
*  2023  1 25 16 58 30.00000000
PL64  -4497.725260    955.127316   5095.533352  18609.873383
VL64 -55048.434875  13074.707759 -51042.885787 999999.999999
*  2023  1 25 16 59  0.00000000
PL64  -4660.276300    994.175430   4939.605164  18610.333220
VL64 -53308.994509  12953.694734 -52899.693766 999999.999999
*  2023  1 25 16 59 30.00000000
PL64  -4817.520653   1032.827384   4778.193497  18610.793211
VL64 -51510.981846  12810.581828 -54698.196368 999999.999999
*  2023  1 25 17  0  0.00000000
PL64  -4969.285675   1071.016720   4611.476322  18611.253458
VL64 -49656.455432  12645.269553 -56436.365641 999999.999999
*  2023  1 25 17  0 30.00000000
PL64  -5115.404994   1108.676735   4439.637602  18611.713517
VL64 -47747.539691  12457.692576 -58112.237972 999999.999999
*  2023  1 25 17  1  0.00000000
PL64  -5255.718710   1145.740579   4262.867089  18612.173327
VL64 -45786.422546  12247.820213 -59723.917157 999999.999999
*  2023  1 25 17  1 30.00000000
PL64  -5390.073575   1182.141364   4081.360121  18612.633048
VL64 -43775.352576  12015.656616 -61269.576273 999999.999999
*  2023  1 25 17  2  0.00000000
PL64  -5518.323178   1217.812266   3895.317410  18613.092664
VL64 -41716.637387  11761.241484 -62747.459551 999999.999999
*  2023  1 25 17  2 30.00000000
PL64  -5640.328116   1252.686636   3704.944824  18613.552256
VL64 -39612.641431  11484.650654 -64155.885672 999999.999999
*  2023  1 25 17  3  0.00000000
PL64  -5755.956162   1286.698105   3510.453160  18614.011914
VL64 -37465.782530  11185.995935 -65493.250360 999999.999999
*  2023  1 25 17  3 30.00000000
PL64  -5865.082415   1319.780694   3312.057911  18614.471574
VL64 -35278.529098  10865.424844 -66758.027949 999999.999999
*  2023  1 25 17  4  0.00000000
PL64  -5967.589457   1351.868920   3109.979027  18614.930844
VL64 -33053.397840  10523.120554 -67948.773519 999999.999999
*  2023  1 25 17  4 30.00000000
PL64  -6063.367485   1382.897902   2904.440667  18615.390302
VL64 -30792.950577  10159.301920 -69064.125300 999999.999999
*  2023  1 25 17  5  0.00000000
PL64  -6152.314446   1412.803470   2695.670949  18615.849405
VL64 -28499.790544   9774.223560 -70102.806274 999999.999999
*  2023  1 25 17  5 30.00000000
PL64  -6234.336156   1441.522273   2483.901694  18616.308791
VL64 -26176.559424   9368.175947 -71063.625259 999999.999999
*  2023  1 25 17  6  0.00000000
PL64  -6309.346409   1468.991882   2269.368166  18616.768010
VL64 -23825.935092   8941.485446 -71945.478466 999999.999999
*  2023  1 25 17  6 30.00000000
PL64  -6377.267084   1495.150903   2052.308806  18617.227250
VL64 -21450.629140   8494.514306 -72747.351910 999999.999999
*  2023  1 25 17  7  0.00000000
PL64  -6438.028242   1519.939084   1832.964959  18617.686762
VL64 -19053.382959   8027.660318 -73468.324246 999999.999999
*  2023  1 25 17  7 30.00000000
PL64  -6491.568207   1543.297414   1611.580592  18618.146319
VL64 -16636.962762   7541.355977 -74107.568091 999999.999999
*  2023  1 25 17  8  0.00000000
PL64  -6537.833632   1565.168235   1388.402016  18618.605725
VL64 -14204.155888   7036.068005 -74664.349852 999999.999999
*  2023  1 25 17  8 30.00000000
PL64  -6576.779561   1585.495338   1163.677598  18619.064954
VL64 -11757.768357   6512.297398 -75138.030642 999999.999999
*  2023  1 25 17  9  0.00000000
PL64  -6608.369482   1604.224070    937.657478  18619.523613
VL64  -9300.621173   5970.579012 -75528.068380 999999.999999
*  2023  1 25 17  9 30.00000000
PL64  -6632.575360   1621.301431    710.593278  18619.982665
VL64  -6835.545418   5411.480281 -75834.018706 999999.999999
*  2023  1 25 17 10  0.00000000
PL64  -6649.377663   1636.676169    482.737804  18620.441795
VL64  -4365.378496   4835.599923 -76055.534303 999999.999999
*  2023  1 25 17 10 30.00000000
PL64  -6658.765381   1650.298877    254.344760  18620.900864
VL64  -1892.961778   4243.567460 -76192.364889 999999.999999
*  2023  1 25 17 11  0.00000000
PL64  -6660.736027   1662.122081     25.668455  18621.360135
VL64    578.862354   3636.043085 -76244.358575 999999.999999
*  2023  1 25 17 11 30.00000000
PL64  -6655.295638   1672.100333   -203.036498  18621.819477
VL64   3047.255252   3013.716998 -76211.462950 999999.999999
*  2023  1 25 17 12  0.00000000
PL64  -6642.458757   1680.190299   -431.515477  18622.278901
VL64   5509.386943   2377.308163 -76093.724305 999999.999999
*  2023  1 25 17 12 30.00000000
PL64  -6622.248396   1686.350845   -659.514142  18622.738403
VL64   7962.439226   1727.562944 -75891.286177 999999.999999
*  2023  1 25 17 13  0.00000000
PL64  -6594.696005   1690.543112   -886.778731  18623.197986
VL64  10403.607963   1065.253937 -75604.388977 999999.999999
EOF
